IRIDIUM 116             
1 43072U 17083C   24337.85748902  .00000567  00000+0  19553-3 0  9990
2 43072  86.4007 196.5918 0001820  85.3510 274.7894 14.34218274363712
IRIDIUM 130             
1 43073U 17083D   24338.31415648 -.00000010  00000+0 -10808-4 0  9991
2 43073  86.4013 196.6212 0001770  80.8966 279.2430 14.34217493363726
IRIDIUM 151             
1 43074U 17083E   24337.87016010  .00000679  00000+0  23531-3 0  9997
2 43074  86.4005 196.6314 0001918  88.9331 271.2085 14.34224169363681
IRIDIUM 134             
1 43075U 17083F   24337.90823111 -.00000013  00000+0 -11743-4 0  9997
2 43075  86.4011 196.6157 0001775  82.7369 277.4029 14.34217284363651
IRIDIUM 137             
1 43076U 17083G   24337.85113217  .00000700  00000+0  24301-3 0  9995
2 43076  86.4014 196.7209 0001685  94.9482 265.1906 14.34215199363713
IRIDIUM 141             
1 43077U 17083H   24337.84480821  .00000375  00000+0  12698-3 0  9997
2 43077  86.3944 196.5862 0002497  82.7155 277.4325 14.34212646363717
IRIDIUM 153             
1 43078U 17083J   24337.86675288  .00000185  00000+0  59134-4 0  9999
2 43078  86.3988 165.1051 0002588  86.4600 273.6891 14.34218125364822
IRIDIUM 131             
1 43079U 17083K   24337.90188787  .00000085  00000+0  23288-4 0  9998
2 43079  86.4009 196.7107 0002167  88.6972 271.4472 14.34218004363656
